IRIDIUM 112             
1 41925U 17003J   25057.59132112  .00000124  00000+0  37211-4 0  9999
2 41925  86.3931 287.0344 0001973  91.8673 268.2749 14.34218534425100
IRIDIUM 111             
1 41926U 17003K   25057.57863346  .00000454  00000+0  15486-3 0  9993
2 41926  86.3934 287.0998 0002130  83.8741 276.2697 14.34220912425083
IRIDIUM 113             
1 42803U 17039A   25057.55860116  .00000189  00000+0  60520-4 0  9992
2 42803  86.4044 160.9663 0002247 108.9135 251.2305 14.34218629403014
IRIDIUM 123             
1 42804U 17039B   25057.60007773  .00000453  00000+0  15460-3 0  9997
2 42804  86.4026 192.3644 0002295  90.4297 269.7161 14.34220241401789
IRIDIUM 120             
1 42805U 17039C   25057.55225833  .00000032  00000+0  45266-5 0  9993
2 42805  86.4036 160.8133 0002072  88.9874 271.1559 14.34218365403009
IRIDIUM 115             
1 42806U 17039D   25057.37036647  .00001202  00000+0  35127-3 0  9990
2 42806  86.4570 160.9518 0002729  87.8256 272.3257 14.43279828405632
IRIDIUM 118             
1 42807U 17039E   25057.63179297  .00000198  00000+0  63811-4 0  9994
2 42807  86.4029 192.3515 0002042  98.5194 261.6233 14.34218252401787
IRIDIUM 117             
1 42808U 17039F   25057.44151521  .00000136  00000+0  41555-4 0  9997
2 42808  86.4024 192.3930 0002374  91.7635 268.3833 14.34218710401786
